CCSDS_OMM_VERS = 2.0
CREATION_DATE  = 
ORIGINATOR     = 

OBJECT_NAME    = IDEFIX & ARIANE 42P R/B
OBJECT_ID      = 2002-021B
CENTER_NAME    = EARTH
REF_FRAME      = TEME
TIME_SYSTEM    = UTC
MEAN_ELEMENT_THEORY = SGP/SGP4

EPOCH          = 2026-02-10T10:28:46.695648
MEAN_MOTION    = 14.31006322
ECCENTRICITY   = .00106411
INCLINATION    = 98.5841
RA_OF_ASC_NODE = 340.3735
ARG_OF_PERICENTER = 268.4732
MEAN_ANOMALY   = 91.5232

EPHEMERIS_TYPE = 0
CLASSIFICATION_TYPE = U
NORAD_CAT_ID   = 27422
ELEMENT_SET_NO = 999
REV_AT_EPOCH   = 24012
BSTAR          = .14431379E-3
MEAN_MOTION_DOT = .336E-5
MEAN_MOTION_DDOT = 0

CCSDS_OMM_VERS = 2.0
CREATION_DATE  = 
ORIGINATOR     = 

OBJECT_NAME    = AQUA
OBJECT_ID      = 2002-022A
CENTER_NAME    = EARTH
REF_FRAME      = TEME
TIME_SYSTEM    = UTC
MEAN_ELEMENT_THEORY = SGP/SGP4

EPOCH          = 2026-02-10T14:13:36.650784
MEAN_MOTION    = 14.61908801
ECCENTRICITY   = .00014495
INCLINATION    = 98.4125
RA_OF_ASC_NODE = 8.4750
ARG_OF_PERICENTER = 51.9079
MEAN_ANOMALY   = 69.7595

EPHEMERIS_TYPE = 0
CLASSIFICATION_TYPE = U
NORAD_CAT_ID   = 27424
ELEMENT_SET_NO = 999
REV_AT_EPOCH   = 26477
BSTAR          = .24570752E-3
MEAN_MOTION_DOT = .118E-4
MEAN_MOTION_DDOT = 0

CCSDS_OMM_VERS = 2.0
CREATION_DATE  = 
ORIGINATOR     = 

OBJECT_NAME    = CZ-4B R/B
OBJECT_ID      = 2002-024C
CENTER_NAME    = EARTH
REF_FRAME      = TEME
TIME_SYSTEM    = UTC
MEAN_ELEMENT_THEORY = SGP/SGP4

EPOCH          = 2026-02-09T23:49:27.617664
MEAN_MOTION    = 14.14542502
ECCENTRICITY   = .0051148
INCLINATION    = 98.8902
RA_OF_ASC_NODE = 94.5307
ARG_OF_PERICENTER = 101.5905
MEAN_ANOMALY   = 325.8929

EPHEMERIS_TYPE = 0
CLASSIFICATION_TYPE = U
NORAD_CAT_ID   = 27432
ELEMENT_SET_NO = 999
REV_AT_EPOCH   = 22532
BSTAR          = .45155E-4
MEAN_MOTION_DOT = .44E-6
MEAN_MOTION_DDOT = 0

CCSDS_OMM_VERS = 2.0
CREATION_DATE  = 
ORIGINATOR     = 

OBJECT_NAME    = MIDORI II (ADEOS-II)
OBJECT_ID      = 2002-056A
CENTER_NAME    = EARTH
REF_FRAME      = TEME
TIME_SYSTEM    = UTC
MEAN_ELEMENT_THEORY = SGP/SGP4

EPOCH          = 2026-02-10T12:02:22.052832
MEAN_MOTION    = 14.29264398
ECCENTRICITY   = .00021693
INCLINATION    = 98.7720
RA_OF_ASC_NODE = 359.8003
ARG_OF_PERICENTER = 80.8482
MEAN_ANOMALY   = 279.2944

EPHEMERIS_TYPE = 0
CLASSIFICATION_TYPE = U
NORAD_CAT_ID   = 27597
ELEMENT_SET_NO = 999
REV_AT_EPOCH   = 20641
BSTAR          = .16632423E-3
MEAN_MOTION_DOT = .378E-5
MEAN_MOTION_DDOT = 0

CCSDS_OMM_VERS = 2.0
CREATION_DATE  = 
ORIGINATOR     = 

OBJECT_NAME    = H-2A R/B
OBJECT_ID      = 2002-056E
CENTER_NAME    = EARTH
REF_FRAME      = TEME
TIME_SYSTEM    = UTC
MEAN_ELEMENT_THEORY = SGP/SGP4

EPOCH          = 2026-02-10T11:59:19.829184
MEAN_MOTION    = 14.33741405
ECCENTRICITY   = .00690835
INCLINATION    = 98.3151
RA_OF_ASC_NODE = 2.9086
ARG_OF_PERICENTER = 242.2403
MEAN_ANOMALY   = 226.8286

EPHEMERIS_TYPE = 0
CLASSIFICATION_TYPE = U
NORAD_CAT_ID   = 27601
ELEMENT_SET_NO = 999
REV_AT_EPOCH   = 21021
BSTAR          = .14028374E-3
MEAN_MOTION_DOT = .358E-5
MEAN_MOTION_DDOT = 0

CCSDS_OMM_VERS = 2.0
CREATION_DATE  = 
ORIGINATOR     = 

OBJECT_NAME    = CZ-4B R/B
OBJECT_ID      = 2003-049C
CENTER_NAME    = EARTH
REF_FRAME      = TEME
TIME_SYSTEM    = UTC
MEAN_ELEMENT_THEORY = SGP/SGP4

EPOCH          = 2026-02-10T13:31:58.919232
MEAN_MOTION    = 14.54990352
ECCENTRICITY   = .00473699
INCLINATION    = 98.6850
RA_OF_ASC_NODE = 35.4111
ARG_OF_PERICENTER = 315.5824
MEAN_ANOMALY   = 44.1577

EPHEMERIS_TYPE = 0
CLASSIFICATION_TYPE = U
NORAD_CAT_ID   = 28059
ELEMENT_SET_NO = 999
REV_AT_EPOCH   = 18265
BSTAR          = .13952202E-3
MEAN_MOTION_DOT = .558E-5
MEAN_MOTION_DDOT = 0

CCSDS_OMM_VERS = 2.0
CREATION_DATE  = 
ORIGINATOR     = 

OBJECT_NAME    = CZ-2C R/B
OBJECT_ID      = 2004-012C
CENTER_NAME    = EARTH
REF_FRAME      = TEME
TIME_SYSTEM    = UTC
MEAN_ELEMENT_THEORY = SGP/SGP4

EPOCH          = 2026-02-10T03:22:59.128896
MEAN_MOTION    = 15.61359870
ECCENTRICITY   = .00157939
INCLINATION    = 97.7303
RA_OF_ASC_NODE = 103.8856
ARG_OF_PERICENTER = 55.3232
MEAN_ANOMALY   = 304.9510

EPHEMERIS_TYPE = 0
CLASSIFICATION_TYPE = U
NORAD_CAT_ID   = 28222
ELEMENT_SET_NO = 999
REV_AT_EPOCH   = 19997
BSTAR          = .57538817E-3
MEAN_MOTION_DOT = .49343E-3
MEAN_MOTION_DDOT = 0

CCSDS_OMM_VERS = 2.0
CREATION_DATE  = 
ORIGINATOR     = 

OBJECT_NAME    = SL-16 R/B
OBJECT_ID      = 2004-021B
CENTER_NAME    = EARTH
REF_FRAME      = TEME
TIME_SYSTEM    = UTC
MEAN_ELEMENT_THEORY = SGP/SGP4

EPOCH          = 2026-02-10T02:11:23.289792
MEAN_MOTION    = 14.14590483
ECCENTRICITY   = .00029936
INCLINATION    = 70.9996
RA_OF_ASC_NODE = 290.4132
ARG_OF_PERICENTER = 78.7281
MEAN_ANOMALY   = 281.4178

EPHEMERIS_TYPE = 0
CLASSIFICATION_TYPE = U
NORAD_CAT_ID   = 28353
ELEMENT_SET_NO = 999
REV_AT_EPOCH   = 11893
BSTAR          = .11444327E-3
MEAN_MOTION_DOT = .172E-5
MEAN_MOTION_DDOT = 0

CCSDS_OMM_VERS = 2.0
CREATION_DATE  = 
ORIGINATOR     = 

OBJECT_NAME    = CZ-4B R/B
OBJECT_ID      = 2004-035C
CENTER_NAME    = EARTH
REF_FRAME      = TEME
TIME_SYSTEM    = UTC
MEAN_ELEMENT_THEORY = SGP/SGP4

EPOCH          = 2026-02-10T13:11:57.058080
MEAN_MOTION    = 15.28558023
ECCENTRICITY   = .00340484
INCLINATION    = 97.3548
RA_OF_ASC_NODE = 76.1231
ARG_OF_PERICENTER = 66.3716
MEAN_ANOMALY   = 294.1092

EPHEMERIS_TYPE = 0
CLASSIFICATION_TYPE = U
NORAD_CAT_ID   = 28415
ELEMENT_SET_NO = 999
REV_AT_EPOCH   = 17576
BSTAR          = .29810175E-3
MEAN_MOTION_DOT = .8352E-4
MEAN_MOTION_DDOT = 0

CCSDS_OMM_VERS = 2.0
CREATION_DATE  = 
ORIGINATOR     = 

OBJECT_NAME    = CZ-2C R/B
OBJECT_ID      = 2004-046B
CENTER_NAME    = EARTH
REF_FRAME      = TEME
TIME_SYSTEM    = UTC
MEAN_ELEMENT_THEORY = SGP/SGP4

EPOCH          = 2026-02-10T08:23:15.528192
MEAN_MOTION    = 14.26982564
ECCENTRICITY   = .01383464
INCLINATION    = 98.1993
RA_OF_ASC_NODE = 318.0316
ARG_OF_PERICENTER = 235.4912
MEAN_ANOMALY   = 123.3143

EPHEMERIS_TYPE = 0
CLASSIFICATION_TYPE = U
NORAD_CAT_ID   = 28480
ELEMENT_SET_NO = 999
REV_AT_EPOCH   = 10460
BSTAR          = .71538406E-4
MEAN_MOTION_DOT = .15E-5
MEAN_MOTION_DDOT = 0

CCSDS_OMM_VERS = 2.0
CREATION_DATE  = 
ORIGINATOR     = 

OBJECT_NAME    = ARIANE 5 R/B
OBJECT_ID      = 2004-049H
CENTER_NAME    = EARTH
REF_FRAME      = TEME
TIME_SYSTEM    = UTC
MEAN_ELEMENT_THEORY = SGP/SGP4

EPOCH          = 2026-02-10T09:58:05.611008
MEAN_MOTION    = 14.85210359
ECCENTRICITY   = .00854823
INCLINATION    = 98.2584
RA_OF_ASC_NODE = 208.8605
ARG_OF_PERICENTER = 79.6995
MEAN_ANOMALY   = 281.3843

EPHEMERIS_TYPE = 0
CLASSIFICATION_TYPE = U
NORAD_CAT_ID   = 28499
ELEMENT_SET_NO = 999
REV_AT_EPOCH   = 14174
BSTAR          = .12606865E-3
MEAN_MOTION_DOT = .109E-4
MEAN_MOTION_DDOT = 0

CCSDS_OMM_VERS = 2.0
CREATION_DATE  = 
ORIGINATOR     = 

OBJECT_NAME    = CZ-2D R/B
OBJECT_ID      = 2005-024B
CENTER_NAME    = EARTH
REF_FRAME      = TEME
TIME_SYSTEM    = UTC
MEAN_ELEMENT_THEORY = SGP/SGP4

EPOCH          = 2026-02-10T13:21:19.052064
MEAN_MOTION    = 15.57756503
ECCENTRICITY   = .00075331
INCLINATION    = 97.3621
RA_OF_ASC_NODE = 55.7595
ARG_OF_PERICENTER = 111.9290
MEAN_ANOMALY   = 248.2768

EPHEMERIS_TYPE = 0
CLASSIFICATION_TYPE = U
NORAD_CAT_ID   = 28738
ELEMENT_SET_NO = 999
REV_AT_EPOCH   = 13555
BSTAR          = .49608883E-3
MEAN_MOTION_DOT = .36871E-3
MEAN_MOTION_DDOT = 0

